{
    "links": {
        "self": "http://www.neowsapp.com/rest/v1/neo/3831716?api_key=iIulBulltgU6a56xZRHN4H3l9WmuAYTsLGpBGhQ2"
    },
    "id": "3831716",
    "neo_reference_id": "3831716",
    "name": "(2018 TC4)",
    "designation": "2018 TC4",
    "nasa_jpl_url": "http://ssd.jpl.nasa.gov/sbdb.cgi?sstr=3831716",
    "absolute_magnitude_h": 26.3,
    "estimated_diameter": {
        "kilometers": {
            "estimated_diameter_min": 0.0146067964,
            "estimated_diameter_max": 0.0326617897
        },
        "meters": {
            "estimated_diameter_min": 14.6067964271,
            "estimated_diameter_max": 32.6617897446
        },
        "miles": {
            "estimated_diameter_min": 0.0090762397,
            "estimated_diameter_max": 0.020295089
        },
        "feet": {
            "estimated_diameter_min": 47.92256199,
            "estimated_diameter_max": 107.1581062656
        }
    },
    "is_potentially_hazardous_asteroid": false,
    "close_approach_data": [
        {
            "close_approach_date": "2018-04-26",
            "close_approach_date_full": "2018-Apr-26 09:02",
            "epoch_date_close_approach": 1524733320000,
            "relative_velocity": {
                "kilometers_per_second": "11.9131850518",
                "kilometers_per_hour": "42887.4661866431",
                "miles_per_hour": "26648.6036424728"
            },
            "miss_distance": {
                "astronomical": "0.4444635353",
                "lunar": "172.8963152317",
                "kilometers": "66490798.173549811",
                "miles": "41315466.1614209518"
            },
            "orbiting_body": "Earth"
        },
        {
            "close_approach_date": "2018-09-30",
            "close_approach_date_full": "2018-Sep-30 20:06",
            "epoch_date_close_approach": 1538337960000,
            "relative_velocity": {
                "kilometers_per_second": "14.4971931859",
                "kilometers_per_hour": "52189.8954690985",
                "miles_per_hour": "32428.7714374518"
            },
            "miss_distance": {
                "astronomical": "0.052725605",
                "lunar": "20.510260345",
                "kilometers": "7887638.20246135",
                "miles": "4901151.10961263"
            },
            "orbiting_body": "Earth"
        }
    ],
    "orbital_data": {
        "orbit_id": "1",
        "orbit_determination_date": "2018-10-10 08:12:05",
        "first_observation_date": "2018-10-05",
        "last_observation_date": "2018-10-10",
        "data_arc_in_days": 5,
        "observations_used": 13,
        "orbit_uncertainty": "9",
        "minimum_orbit_intersection": ".0506215",
        "jupiter_tisserand_invariant": "4.502",
        "epoch_osculation": "2458397.5",
        "eccentricity": ".362814200381438",
        "semi_major_axis": "1.448643949154378",
        "inclination": "22.27110563157822",
        "ascending_node_longitude": "192.088799400388",
        "orbital_period": "636.8555120019613",
        "perihelion_distance": ".9230553531045235",
        "perihelion_argument": "120.3987576690358",
        "aphelion_distance": "1.974232545204232",
        "perihelion_time": "2458345.843927333335",
        "mean_anomaly": "29.20000818010055",
        "mean_motion": ".5652773560337675",
        "equinox": "J2000",
        "orbit_class": {
            "orbit_class_type": "APO",
            "orbit_class_description": "Near-Earth asteroid orbits which cross the Earth’s orbit similar to that of 1862 Apollo",
            "orbit_class_range": "a (semi-major axis) > 1.0 AU; q (perihelion) < 1.017 AU"
        }
    },
    "is_sentry_object": false
}